NOAA 13                 
1 22739U 93050A   24125.17798970  .00000176  00000+0  11661-3 0  9993
2 22739  98.6029  84.3636 0009496 172.0736 188.0589 14.13191191584279
